O3B FM7                 
1 40080U 14038B   22214.42670635 -.00000014  00000+0  00000+0 0  9996
2 40080   0.0588 359.8734 0001027 166.1987 193.9302  5.00115455147377
O3B FM6                 
1 40081U 14038C   22214.65297129 -.00000014  00000+0  00000+0 0  9995
2 40081   0.0543   0.9865 0002691 131.7928 227.2428  5.00115379147060
O3B FM8                 
1 40082U 14038D   22214.70692229 -.00000013  00000+0  00000+0 0  9991
2 40082   0.0541 357.5632 0002687 131.2172 231.2432  5.00115642147189
O3B FM10                
1 40348U 14083A   22214.73293168 -.00000013  00000+0  00000+0 0  9998
2 40348   0.0485   8.8360 0002631 122.4735 228.7128  5.00115145139138
O3B FM11                
1 40349U 14083B   22214.74640944 -.00000013  00000+0  00000+0 0  9998
2 40349   0.0529  10.6489 0002240 135.1264 214.2388  5.00115362139303
O3B FM12                
1 40350U 14083C   22214.37382395 -.00000014  00000+0  00000+0 0  9993
2 40350   0.0526   9.6799 0002688 125.6028 224.7384  5.00115266139149
O3B FM9                 
1 40351U 14083D   22214.40076943 -.00000014  00000+0  00000+0 0  9997
2 40351   0.0539  11.3793 0002583 121.0135 227.6284  5.00115606139296
DIAMOND RED             
1 42783U 17036U   22215.08438530  .00004102  00000+0  15203-3 0  9994
2 42783  97.1961 254.2886 0011236 155.5443 204.6333 15.28111003284067
DIAMOND GREEN           
1 42785U 17036W   22215.28049425  .00004642  00000+0  17197-3 0  9992
2 42785  97.1965 254.5419 0011092 155.8978 204.2783 15.28060874284080
DIAMOND BLUE            
1 42786U 17036X   22215.08312380  .00004229  00000+0  15687-3 0  9997
2 42786  97.1964 254.3433 0011087 157.1117 203.0619 15.28069128284051
LEO VANTAGE 1           
1 43113U 18004C   22214.87341133  .00000890  00000+0  77542-4 0  9991
2 43113  99.2461 299.8461 0401799  51.9743 311.7012 14.53996417230989
O3B FM15                
1 43231U 18024A   22214.66661441 -.00000013  00000+0  00000+0 0  9996
2 43231   0.0451   7.8314 0002886 126.7444 225.4472  5.00115985 80266
O3B FM16                
1 43232U 18024B   22214.71999150 -.00000013  00000+0  00000+0 0  9994
2 43232   0.0410   7.7844 0002851 126.9652 225.2731  5.00115875 80189
O3B FM14                
1 43233U 18024C   22214.75957404 -.00000013  00000+0  00000+0 0  9995
2 43233   0.0396   6.7076 0002667 129.2700 224.0432  5.00115305 80198
O3B FM13                
1 43234U 18024D   22208.01678119 -.00000024  00000+0  00000+0 0  9993
2 43234   0.0510  40.2456 0003497  99.1240 220.6543  5.00115073 79979
O3B FM20                
1 44112U 19020A   22214.78629991 -.00000013  00000+0  00000+0 0  9999
2 44112   0.0485   8.0049 0002895 134.0253 217.9898  5.00115440 60880
O3B FM19                
1 44113U 19020B   22210.81524545 -.00000020  00000+0  00000+0 0  9997
2 44113   0.0551  23.5318 0001731 107.7214 228.7598  5.00115059 60689
O3B FM17                
1 44114U 19020C   22214.49383846 -.00000014  00000+0  00000+0 0  9996
2 44114   0.0433 343.8092 0002984 151.6040 224.6102  5.00115537 60746
O3B FM18                
1 44115U 19020D   22214.64026546 -.00000014  00000+0  00000+0 0  9995
2 44115   0.0486   8.5057 0002875 123.5246 227.9936  5.00115740 60888
SALSAT                  
1 46495U 20068K   22214.38399947  .00001390  00000+0  10303-3 0  9999
2 46495  97.7308 155.7067 0017743 119.6918 240.6077 15.04669874101099
ISS (ZARYA)             
1 25544U 98067A   22215.51986059  .00005437  00000+0  10240-3 0  9993
2 25544  51.6439 102.1216 0005338  78.3696 343.6532 15.50219581352521
AEROCUBE 12A            
1 43556U 18046C   22214.51105408  .00010711  00000+0  26671-3 0  9991
2 43556  51.6375 319.0885 0006225 206.1712 153.8960 15.40781077226417
AEROCUBE 12B            
1 43557U 18046D   22214.83518003  .00008307  00000+0  22490-3 0  9999
2 43557  51.6392 322.6783 0006530 201.2991 158.7722 15.38531668226346
LEMUR-2-VU              
1 43558U 18046E   22214.84235999  .00018373  00000+0  33558-3 0  9992
2 43558  51.6375 297.0126 0005530 220.4273 139.6305 15.49437089226731
LEMUR-2-ALEXANDER       
1 43559U 18046F   22215.22594644  .00027121  00000+0  46740-3 0  9999
2 43559  51.6373 292.8557 0004950 238.1123 121.9385 15.50836265226605
LEMUR-2-YUASA           
1 43560U 18046G   22215.45046759  .00023254  00000+0  41450-3 0  9991
2 43560  51.6380 294.3289 0005436 245.8268 114.2152 15.49970674226821
LEMUR-2-TOMHENDERSON    
1 43561U 18046H   22214.78660987  .00018207  00000+0  35484-3 0  9994
2 43561  51.6392 301.1000 0005509 236.2763 123.7700 15.47575405226238
ISS DEB (SEDA-AP)       
1 43870U 98067PU  22215.38075420  .00100840  15092-4  28109-3 0  9990
2 43870  51.6287 344.3624 0002015 333.8811  26.2095 15.93626487206377
STPSAT-4                
1 45043U 98067QY  22215.03882429  .00082922  00000+0  36875-3 0  9998
2 45043  51.6334  55.4304 0000787  29.0768 331.0279 15.83607930142863
SORTIE                  
1 45264U 98067RH  22214.42125629  .00115197  00000+0  40469-3 0  9992
2 45264  51.6373  52.1014 0001957 346.0744  14.0207 15.88340930139526
ICS-EF (ISS DEB)        
1 45265U 98067RJ  22214.99729945  .00015734  00000+0  16574-3 0  9992
2 45265  51.6366  76.9888 0003736  24.6081 335.5091 15.64454225138924
RED-EYE 2 (MERLOT)      
1 45800U 98067RM  22215.00252148  .00041889  00000+0  28838-3 0  9992
2 45800  51.6362  65.8268 0001197 102.6584 257.4549 15.74191605120931
RED-EYE 3 (CABERNET)    
1 45809U 98067RN  22214.49819787  .00040212  00000+0  27762-3 0  9995
2 45809  51.6369  68.4632 0001193  84.9405 275.1731 15.74144731119836
ISS DEB                 
1 47853U 98067RZ  22214.76007445  .00004601  00000+0  75857-4 0  9997
2 47853  51.6414  99.5083 0002422 157.5720 202.5377 15.54441745 79115
MMSATS-1                
1 47976U 98067SJ  22215.48461006  .00012873  00000+0  15652-3 0  9996
2 47976  51.6405  88.4141 0002294 151.0508 271.9589 15.60937932 77605
CSS (TIANHE)            
1 48274U 21035A   22215.41280553  .00004973  00000+0  60325-4 0  9998
2 48274  41.4733 291.3331 0006703 335.2338  81.9288 15.61483443 72154
ISS DEB                 
1 48833U 98067SK  22215.05958344  .00034740  00000+0  30238-3 0  9992
2 48833  51.6348  85.6655 0002262 159.8429 200.2657 15.68687259 66461
RAMSAT                  
1 48850U 98067SL  22214.50611871  .00068754  00000+0  40461-3 0  9992
2 48850  51.6354  81.2013 0002564 206.0357 154.0515 15.77567364 64581
BD-28                   
1 48867U 98067SN  22215.02704992  .00129131  00000+0  52280-3 0  9994
2 48867  51.6259  74.0507 0002837 228.0467 132.0295 15.85392973 63479
ISS (NAUKA)             
1 49044U 21066A   22214.30881345  .00004882  00000+0  92816-4 0  9990
2 49044  51.6438 108.1238 0005298  74.4591  64.5251 15.50203291352334
FREGAT DEB              
1 49271U 11037PF  22214.42586309  .00057155  00000+0  27870+0 0  9998
2 49271  51.6293 109.2467 0859694 129.9324 238.0318 11.90638496 52651
BINAR-1                 
1 49272U 98067SR  22214.50946495  .00087681  00000+0  48616-3 0  9994
2 49272  51.6312  84.9268 0003861 149.3562 210.7665 15.78796659 46920
MAYA-3                  
1 49273U 98067SS  22214.97875997  .03019242  11985-4  95607-3 0  9996
2 49273  51.6166  71.3317 0012920 266.8149  93.1393 16.25374081 47145
MAYA-4                  
1 49274U 98067ST  22215.32648352  .01124139  81894-3  99038-3 0  9997
2 49274  51.6215  70.7014 0010285 260.3359  99.6494 16.12399947 47183
CUAVA-1                 
1 49275U 98067SU  22215.49259970  .00222894  29412-4  70403-3 0  9990
2 49275  51.6292  74.7591 0004569 210.6853 219.7349 15.90859440 47096
CAPSAT                  
1 49276U 98067SV  22214.49202658  .00118489  00000+0  57337-3 0  9993
2 49276  51.6341  84.8443 0004270 169.5266 190.5826 15.81650211 45986
PR-CUNAR 2              
1 49277U 98067SW  22215.47009329  .00213464  00000+0  68776-3 0  9991
2 49277  51.6205  76.1848 0004577 201.6126 158.4687 15.89771512 46156
1998-067TD              
1 51441U 98067TD  22214.39211292  .00034714  00000+0  33055-3 0  9992
2 51441  51.6361  96.9689 0005898  64.7671 295.3936 15.66453808 29360
PATCOOL                 
1 51442U 98067TE  22215.25366181  .00038235  00000+0  35670-3 0  9994
2 51442  51.6346  92.2021 0005953  73.2660 286.8989 15.66915375 29464
LIGHT-1                 
1 51509U 98067TG  22215.04805767  .00026969  00000+0  30663-3 0  9991
2 51509  51.6389  96.1219 0007514  54.7326 305.4370 15.62075637 28178
PROGRESS-MS 19          
1 51660U 22014A   22214.30881345  .00004882  00000+0  92816-4 0  9991
2 51660  51.6438 108.1238 0005298  74.4591  64.5251 15.50203291352331
SOYUZ-MS 21             
1 52086U 22028A   22214.30881345  .00004882  00000+0  92816-4 0  9999
2 52086  51.6438 108.1238 0005298  74.4591  64.5251 15.50203291352334
IHI-SAT                 
1 52147U 98067TJ  22214.41932113  .00020559  00000+0  25831-3 0  9996
2 52147  51.6363 102.3982 0004965 102.7803 257.3745 15.59653852 20481
KITSUNE                 
1 52148U 98067TK  22215.28308196  .00013763  00000+0  19608-3 0  9995
2 52148  51.6423  99.7331 0004850  89.1246   8.3393 15.56623636 20531
CREW DRAGON 4           
1 52318U 22042A   22214.30881345  .00004882  00000+0  92816-4 0  9993
2 52318  51.6438 108.1238 0005298  74.4591  64.5251 15.50203291352332
TIANZHOU-4              
1 52509U 22050A   22214.59511063  .00004869  00000+0  59164-4 0  9996
2 52509  41.4732 296.3121 0006955 330.9836 163.6458 15.61474246 72029
PROGRESS-MS 20          
1 52795U 22059A   22214.30881345  .00004882  00000+0  92816-4 0  9990
2 52795  51.6438 108.1238 0005298  74.4591  64.5251 15.50203291352331
SHENZHOU 14             
1 52797U 22060A   22214.59511063  .00004869  00000+0  59164-4 0  9996
2 52797  41.4732 296.3121 0006955 330.9836 163.6458 15.61474246 72028
ISS DEB                 
1 52952U 98067TP  22215.21723138  .00032146  00000+0  51193-3 0  9999
2 52952  51.6415 103.2399 0005615  93.8911 266.2721 15.52953854  4863
